[{"OBJECT_NAME":"ONEWEB-0399","OBJECT_ID":"2021-132L","EPOCH":"2026-03-24T03:02:23.182080","MEAN_MOTION":13.11416316,"ECCENTRICITY":0.00013094,"INCLINATION":87.8896,"RA_OF_ASC_NODE":37.971,"ARG_OF_PERICENTER":80.3154,"MEAN_ANOMALY":279.8122,"EPHEMERIS_TYPE":0,"CLASSIFICATION_TYPE":"U","NORAD_CAT_ID":50479,"ELEMENT_SET_NO":999,"REV_AT_EPOCH":20445,"BSTAR":-0.0017319667,"MEAN_MOTION_DOT":-6.01e-6,"MEAN_MOTION_DDOT":0},{"OBJECT_NAME":"ONEWEB-0400","OBJECT_ID":"2021-132M","EPOCH":"2026-03-24T04:17:32.419680","MEAN_MOTION":13.18687788,"ECCENTRICITY":0.00019064,"INCLINATION":87.9247,"RA_OF_ASC_NODE":352.3329,"ARG_OF_PERICENTER":74.8396,"MEAN_ANOMALY":285.2947,"EPHEMERIS_TYPE":0,"CLASSIFICATION_TYPE":"U","NORAD_CAT_ID":50480,"ELEMENT_SET_NO":999,"REV_AT_EPOCH":21040,"BSTAR":0.00012444676,"MEAN_MOTION_DOT":6.2e-7,"MEAN_MOTION_DDOT":0},{"OBJECT_NAME":"ONEWEB-0401","OBJECT_ID":"2021-132N","EPOCH":"2026-03-24T07:10:56.508960","MEAN_MOTION":13.18686391,"ECCENTRICITY":0.00017534,"INCLINATION":87.9252,"RA_OF_ASC_NODE":352.3047,"ARG_OF_PERICENTER":84.239,"MEAN_ANOMALY":275.8942,"EPHEMERIS_TYPE":0,"CLASSIFICATION_TYPE":"U","NORAD_CAT_ID":50481,"ELEMENT_SET_NO":999,"REV_AT_EPOCH":21042,"BSTAR":0.00018091659,"MEAN_MOTION_DOT":8.4e-7,"MEAN_MOTION_DDOT":0},{"OBJECT_NAME":"ONEWEB-0402","OBJECT_ID":"2021-132P","EPOCH":"2026-03-24T04:29:24.784224","MEAN_MOTION":13.18686144,"ECCENTRICITY":0.0001729,"INCLINATION":87.9247,"RA_OF_ASC_NODE":352.3186,"ARG_OF_PERICENTER":95.9163,"MEAN_ANOMALY":264.2166,"EPHEMERIS_TYPE":0,"CLASSIFICATION_TYPE":"U","NORAD_CAT_ID":50482,"ELEMENT_SET_NO":999,"REV_AT_EPOCH":21043,"BSTAR":4.1351174e-5,"MEAN_MOTION_DOT":2.9e-7,"MEAN_MOTION_DDOT":0},{"OBJECT_NAME":"ONEWEB-0403","OBJECT_ID":"2021-132Q","EPOCH":"2026-03-24T05:05:03.100416","MEAN_MOTION":13.1868767,"ECCENTRICITY":0.00017048,"INCLINATION":87.9249,"RA_OF_ASC_NODE":352.3369,"ARG_OF_PERICENTER":75.6016,"MEAN_ANOMALY":284.5305,"EPHEMERIS_TYPE":0,"CLASSIFICATION_TYPE":"U","NORAD_CAT_ID":50483,"ELEMENT_SET_NO":999,"REV_AT_EPOCH":21039,"BSTAR":0.00010431332,"MEAN_MOTION_DOT":5.4e-7,"MEAN_MOTION_DDOT":0},{"OBJECT_NAME":"ONEWEB-0404","OBJECT_ID":"2021-132R","EPOCH":"2026-03-24T02:35:32.025984","MEAN_MOTION":13.11413582,"ECCENTRICITY":0.00016067,"INCLINATION":87.8888,"RA_OF_ASC_NODE":37.9811,"ARG_OF_PERICENTER":73.0607,"MEAN_ANOMALY":287.0697,"EPHEMERIS_TYPE":0,"CLASSIFICATION_TYPE":"U","NORAD_CAT_ID":50484,"ELEMENT_SET_NO":999,"REV_AT_EPOCH":20454,"BSTAR":0.00019299032,"MEAN_MOTION_DOT":8.1e-7,"MEAN_MOTION_DDOT":0},{"OBJECT_NAME":"ONEWEB-0405","OBJECT_ID":"2021-132S","EPOCH":"2026-03-24T07:15:41.515776","MEAN_MOTION":13.18686101,"ECCENTRICITY":0.00021715,"INCLINATION":87.925,"RA_OF_ASC_NODE":352.3026,"ARG_OF_PERICENTER":67.8842,"MEAN_ANOMALY":292.252,"EPHEMERIS_TYPE":0,"CLASSIFICATION_TYPE":"U","NORAD_CAT_ID":50485,"ELEMENT_SET_NO":999,"REV_AT_EPOCH":21080,"BSTAR":3.1345168e-5,"MEAN_MOTION_DOT":2.5e-7,"MEAN_MOTION_DDOT":0},{"OBJECT_NAME":"ONEWEB-0406","OBJECT_ID":"2021-132T","EPOCH":"2026-03-24T05:12:10.407168","MEAN_MOTION":13.186871,"ECCENTRICITY":0.00014022,"INCLINATION":87.9242,"RA_OF_ASC_NODE":352.3439,"ARG_OF_PERICENTER":68.2069,"MEAN_ANOMALY":291.9212,"EPHEMERIS_TYPE":0,"CLASSIFICATION_TYPE":"U","NORAD_CAT_ID":50486,"ELEMENT_SET_NO":999,"REV_AT_EPOCH":21042,"BSTAR":0.00012873065,"MEAN_MOTION_DOT":6.4e-7,"MEAN_MOTION_DDOT":0},{"OBJECT_NAME":"ONEWEB-0407","OBJECT_ID":"2021-132U","EPOCH":"2026-03-24T05:02:40.740000","MEAN_MOTION":13.18687494,"ECCENTRICITY":0.0001893,"INCLINATION":87.9248,"RA_OF_ASC_NODE":352.3301,"ARG_OF_PERICENTER":82.36,"MEAN_ANOMALY":277.7747,"EPHEMERIS_TYPE":0,"CLASSIFICATION_TYPE":"U","NORAD_CAT_ID":50487,"ELEMENT_SET_NO":999,"REV_AT_EPOCH":21036,"BSTAR":0.00016915189,"MEAN_MOTION_DOT":8.0e-7,"MEAN_MOTION_DDOT":0},{"OBJECT_NAME":"ONEWEB-0409","OBJECT_ID":"2021-132V","EPOCH":"2026-03-24T02:33:05.465664","MEAN_MOTION":13.11413379,"ECCENTRICITY":0.00017175,"INCLINATION":87.8894,"RA_OF_ASC_NODE":37.9633,"ARG_OF_PERICENTER":72.1484,"MEAN_ANOMALY":287.9831,"EPHEMERIS_TYPE":0,"CLASSIFICATION_TYPE":"U","NORAD_CAT_ID":50488,"ELEMENT_SET_NO":999,"REV_AT_EPOCH":20443,"BSTAR":0.00053907666,"MEAN_MOTION_DOT":2.04e-6,"MEAN_MOTION_DDOT":0},{"OBJECT_NAME":"ONEWEB-0412","OBJECT_ID":"2021-132W","EPOCH":"2026-03-24T04:46:03.156096","MEAN_MOTION":13.18686942,"ECCENTRICITY":0.0001708,"INCLINATION":87.9243,"RA_OF_ASC_NODE":352.3458,"ARG_OF_PERICENTER":88.4938,"MEAN_ANOMALY":271.639,"EPHEMERIS_TYPE":0,"CLASSIFICATION_TYPE":"U","NORAD_CAT_ID":50489,"ELEMENT_SET_NO":999,"REV_AT_EPOCH":21045,"BSTAR":0.0001253865,"MEAN_MOTION_DOT":6.2e-7,"MEAN_MOTION_DDOT":0},{"OBJECT_NAME":"ONEWEB-0413","OBJECT_ID":"2021-132X","EPOCH":"2026-03-24T04:53:10.385088","MEAN_MOTION":13.18688095,"ECCENTRICITY":0.00018869,"INCLINATION":87.9239,"RA_OF_ASC_NODE":352.3479,"ARG_OF_PERICENTER":87.8746,"MEAN_ANOMALY":272.2602,"EPHEMERIS_TYPE":0,"CLASSIFICATION_TYPE":"U","NORAD_CAT_ID":50490,"ELEMENT_SET_NO":999,"REV_AT_EPOCH":21039,"BSTAR":0.00018009572,"MEAN_MOTION_DOT":8.4e-7,"MEAN_MOTION_DDOT":0},{"OBJECT_NAME":"ONEWEB-0414","OBJECT_ID":"2021-132Y","EPOCH":"2026-03-24T04:31:46.636608","MEAN_MOTION":13.18686929,"ECCENTRICITY":0.00016413,"INCLINATION":87.9248,"RA_OF_ASC_NODE":352.3239,"ARG_OF_PERICENTER":82.5167,"MEAN_ANOMALY":277.6151,"EPHEMERIS_TYPE":0,"CLASSIFICATION_TYPE":"U","NORAD_CAT_ID":50491,"ELEMENT_SET_NO":999,"REV_AT_EPOCH":21042,"BSTAR":-0.0001076312,"MEAN_MOTION_DOT":-3.0e-7,"MEAN_MOTION_DDOT":0},{"OBJECT_NAME":"ONEWEB-0417","OBJECT_ID":"2021-132Z","EPOCH":"2026-03-24T04:43:40.169280","MEAN_MOTION":13.18686556,"ECCENTRICITY":0.00016408,"INCLINATION":87.924,"RA_OF_ASC_NODE":352.3491,"ARG_OF_PERICENTER":73.0184,"MEAN_ANOMALY":287.1128,"EPHEMERIS_TYPE":0,"CLASSIFICATION_TYPE":"U","NORAD_CAT_ID":50492,"ELEMENT_SET_NO":999,"REV_AT_EPOCH":21040,"BSTAR":-0.00011251499,"MEAN_MOTION_DOT":-3.1e-7,"MEAN_MOTION_DDOT":0},{"OBJECT_NAME":"ONEWEB-0418","OBJECT_ID":"2021-132AA","EPOCH":"2026-03-24T04:57:43.981056","MEAN_MOTION":13.18686549,"ECCENTRICITY":0.00015347,"INCLINATION":87.9255,"RA_OF_ASC_NODE":352.3387,"ARG_OF_PERICENTER":67.8974,"MEAN_ANOMALY":292.2321,"EPHEMERIS_TYPE":0,"CLASSIFICATION_TYPE":"U","NORAD_CAT_ID":50493,"ELEMENT_SET_NO":999,"REV_AT_EPOCH":21046,"BSTAR":0.00014446529,"MEAN_MOTION_DOT":7.0e-7,"MEAN_MOTION_DDOT":0},{"OBJECT_NAME":"ONEWEB-0419","OBJECT_ID":"2021-132AB","EPOCH":"2026-03-24T07:13:18.501312","MEAN_MOTION":13.18688004,"ECCENTRICITY":0.00018594,"INCLINATION":87.925,"RA_OF_ASC_NODE":352.3197,"ARG_OF_PERICENTER":69.1494,"MEAN_ANOMALY":290.9837,"EPHEMERIS_TYPE":0,"CLASSIFICATION_TYPE":"U","NORAD_CAT_ID":50494,"ELEMENT_SET_NO":999,"REV_AT_EPOCH":21039,"BSTAR":0.00019869114,"MEAN_MOTION_DOT":9.1e-7,"MEAN_MOTION_DDOT":0},{"OBJECT_NAME":"ONEWEB-0420","OBJECT_ID":"2021-132AC","EPOCH":"2026-03-24T04:34:09.627744","MEAN_MOTION":13.18685117,"ECCENTRICITY":0.00019479,"INCLINATION":87.9239,"RA_OF_ASC_NODE":352.3523,"ARG_OF_PERICENTER":82.3215,"MEAN_ANOMALY":277.8138,"EPHEMERIS_TYPE":0,"CLASSIFICATION_TYPE":"U","NORAD_CAT_ID":50495,"ELEMENT_SET_NO":999,"REV_AT_EPOCH":21037,"BSTAR":0.00015698393,"MEAN_MOTION_DOT":7.5e-7,"MEAN_MOTION_DDOT":0}]
