ONEWEB-0399             
1 50479U 21132L   26083.12665720 -.00000601  00000+0 -17320-2 0  9995
2 50479  87.8896  37.9710 0001309  80.3154 279.8122 13.11416316204457
ONEWEB-0400             
1 50480U 21132M   26083.17884745  .00000062  00000+0  12445-3 0  9995
2 50480  87.9247 352.3329 0001906  74.8396 285.2947 13.18687788210407
ONEWEB-0401             
1 50481U 21132N   26083.29926515  .00000084  00000+0  18092-3 0  9999
2 50481  87.9252 352.3047 0001753  84.2390 275.8942 13.18686391210421
ONEWEB-0402             
1 50482U 21132P   26083.18709241  .00000029  00000+0  41351-4 0  9997
2 50482  87.9247 352.3186 0001729  95.9163 264.2166 13.18686144210437
ONEWEB-0403             
1 50483U 21132Q   26083.21184144  .00000054  00000+0  10431-3 0  9993
2 50483  87.9249 352.3369 0001704  75.6016 284.5305 13.18687670210398
ONEWEB-0404             
1 50484U 21132R   26083.10800956  .00000081  00000+0  19299-3 0  9999
2 50484  87.8888  37.9811 0001606  73.0607 287.0697 13.11413582204548
ONEWEB-0405             
1 50485U 21132S   26083.30256384  .00000025  00000+0  31345-4 0  9997
2 50485  87.9250 352.3026 0002171  67.8842 292.2520 13.18686101210800
ONEWEB-0406             
1 50486U 21132T   26083.21678712  .00000064  00000+0  12873-3 0  9998
2 50486  87.9242 352.3439 0001402  68.2069 291.9212 13.18687100210424
ONEWEB-0407             
1 50487U 21132U   26083.21019375  .00000080  00000+0  16915-3 0  9992
2 50487  87.9248 352.3301 0001893  82.3600 277.7747 13.18687494210365
ONEWEB-0409             
1 50488U 21132V   26083.10631326  .00000204  00000+0  53908-3 0  9998
2 50488  87.8894  37.9633 0001717  72.1484 287.9831 13.11413379204438
ONEWEB-0412             
1 50489U 21132W   26083.19864764  .00000062  00000+0  12539-3 0  9999
2 50489  87.9243 352.3458 0001708  88.4938 271.6390 13.18686942210455
ONEWEB-0413             
1 50490U 21132X   26083.20359242  .00000084  00000+0  18010-3 0  9997
2 50490  87.9239 352.3479 0001886  87.8746 272.2602 13.18688095210399
ONEWEB-0414             
1 50491U 21132Y   26083.18873422 -.00000030  00000+0 -10763-3 0  9996
2 50491  87.9248 352.3239 0001641  82.5167 277.6151 13.18686929210428
ONEWEB-0417             
1 50492U 21132Z   26083.19699270 -.00000031  00000+0 -11251-3 0  9999
2 50492  87.9240 352.3491 0001640  73.0184 287.1128 13.18686556210408
ONEWEB-0418             
1 50493U 21132AA  26083.20675904  .00000070  00000+0  14447-3 0  9991
2 50493  87.9255 352.3387 0001534  67.8974 292.2321 13.18686549210469
ONEWEB-0419             
1 50494U 21132AB  26083.30090858  .00000091  00000+0  19869-3 0  9998
2 50494  87.9250 352.3197 0001859  69.1494 290.9837 13.18688004210393
ONEWEB-0420             
1 50495U 21132AC  26083.19038921  .00000075  00000+0  15698-3 0  9997
2 50495  87.9239 352.3523 0001947  82.3215 277.8138 13.18685117210378
